{"incident_id":"INC001","trajectory":{"type":"Feature","geometry":{"type":"LineString","coordinates":[[54.48878,25.32213],[54.47878,25.32713],[54.46878,25.33213],[54.45878,25.33713],[54.44878,25.34213],[54.43878,25.34713],[54.42878,25.35213],[54.41878,25.35713],[54.40878,25.36213],[54.39878,25.36713],[54.38878,25.37213],[54.37878,25.37713],[54.36878,25.38213],[54.35878,25.38713],[54.34878,25.39213],[54.33878,25.39713],[54.32878,25.40213],[54.31878,25.40713],[54.30878,25.41213],[54.29878,25.41713],[54.28878,25.42213],[54.27878,25.42713],[54.26878,25.43213],[54.25878,25.43713],[54.24878,25.44213]]},"properties":{"incident_id":"INC001","detection_time":"2026-09-01T20:45:15.466871Z"}},"source_corridor":{"type":"Feature","geometry":{"type":"Polygon","coordinates":[[[54.45486126223173,25.287597153177007],[54.44485966327983,25.292597812344724],[54.434858064415764,25.29759847256407],[54.42485646563928,25.302599133834853],[54.4148548669504,25.30759979615669],[54.4048532683488,25.312600459529392],[54.394851669834495,25.317601123952617],[54.38485007140727,25.322601789426113],[54.374848473067004,25.327602455949588],[54.36484687481354,25.332603123522773],[54.35484527664672,25.3376037921454],[54.34484367856645,25.342604461817164],[54.334842080572585,25.34760513253777],[54.32484048266491,25.352605804306993],[54.31483888484337,25.357606477124513],[54.3048372871078,25.362607150990048],[54.29483568945803,25.367607825903328],[54.28483409189393,25.372608501864082],[54.27483249441538,25.377609178872],[54.2648308970222,25.382609856926837],[54.25482929971431,25.387610536028266],[54.24482770249146,25.392611216176068],[54.23482610535362,25.39761189736992],[54.224824508300635,25.402612579609507],[54.22067508739137,25.40493484562603],[54.21679609235349,25.407615216463235],[54.21322486141278,25.410627900008404],[54.20999577876573,25.41394390543286],[54.20713994378034,25.417531321510594],[54.20468487143956,25.42135562303197],[54.202654226913644,25.42538000239604],[54.201067596833944,25.429565723222787],[54.19994029950183,25.433872492613073],[54.19928323590437,25.438258848501665],[54.19910278302707,25.442682558399838],[54.19940073055639,25.447101025709024],[54.20017426165349,25.451471699708677],[54.201415978060865,25.455752485279515],[54.20311396937801,25.459902148419154],[54.20525192591476,25.46388071364062],[54.20780929410727,25.467649849415622],[54.21076147306412,25.471173237933172],[54.2140800504038,25.474416925589438],[54.2177330751548,25.477349650805312],[54.22168536511866,25.47994314598276],[54.225898845749505,25.48217241065753],[54.230332917284905,25.484015953181927],[54.23494484657502,25.485455998574526],[54.23969017980487,25.48647866050125],[54.24452317208917,25.48707407570044],[54.24939722974563,25.487236499530415],[54.254265360920265,25.486964361697613],[54.25908063015139,25.486260281612925],[54.26379661241674,25.485131043219333],[54.26836784221223,25.48358752953122],[54.27275025326068,25.48164461752092],[54.28275075765475,25.476644244769588],[54.292749158494026,25.4716449226133],[54.302747559198565,25.466645599436706],[54.31274595985588,25.461646275195697],[54.3227443604046,25.456646949920593],[54.33274276091983,25.451647623573482],[54.34274116130473,25.446648296202458],[54.35273956158965,25.441648967791973],[54.362737961812456,25.43664963832276],[54.372736361961856,25.431650307800094],[54.38273476204094,25.426650976222085],[54.39273316197454,25.421651643625978],[54.40273156186885,25.4166523099583],[54.412729961694225,25.41165297523354],[54.4227283613847,25.406653639484333],[54.43272676103438,25.40165430266327],[54.44272516057065,25.3966549648063],[54.45272356005479,25.391655625882443],[54.46272195942448,25.386656285922506],[54.472720358693074,25.381656944919463],[54.48271875789544,25.376657602855534],[54.49271715701267,25.371658259739817],[54.50271555606384,25.36665891556242],[54.51271604002816,25.361658527684547],[54.51686476075356,25.35933577923392],[54.52074276987365,25.35665461625108],[54.524312701996806,25.35364088126532],[54.527540168621655,25.35032362119169],[54.53039408962371,25.34673480670595],[54.53284699248525,25.342909023438096],[54.53487527639041,25.33888313799378],[54.5364594386614,25.334695942054708],[54.5375842613885,25.33038777801831],[54.538238956502944,25.32600014981173],[54.53841726795312,25.321575322653533],[54.53811753006674,25.317155915637986],[54.537342681609445,25.31278449107945],[54.53610023548103,25.308503144579795],[54.534402204417745,25.30435309976729],[54.532264983490684,25.300374311604262],[54.52970919060111,25.296605082071547],[54.526759466570084,25.293081691912278],[54.52344423679882,25.289838051958338],[54.51979543683425,25.286905377368925],[54.515848204508366,25.284311887887533],[54.5116405416272,25.282082536970382],[54.50721294846403,25.280238772360747],[54.502608034558484,25.27879833038124],[54.497870109537374,25.277775065892868],[54.493044757853134,25.277178819529382],[54.48817840147925,25.27701532346019],[54.48331785470956,25.277286146569317],[54.47850987527763,25.27798867956356],[54.473800716044316,25.279116160145286],[54.469235681495306,25.28065773800528],[54.46485869324574,25.28259857901503],[54.45486126223173,25.287597153177007]]]},"properties":{"buffer_km":5}}}
